{"type": "FeatureCollection", "features": [ {"type": "Feature", "properties": {"norad_id": 64902, "name": "CO3D 2", "group": "resource", "lat": 8.142492561605437, "lon": 72.45193313197842, "alt_km": 506.84495460750077, "timestamp": "2025-12-23T09:49:06.734447+00:00", "meta": {"OBJECT_NAME": "CO3D 2", "OBJECT_ID": "2025-156D", "EPOCH": "2025-12-22T22:43:27.541056", "MEAN_MOTION": 15.2019735, "ECCENTRICITY": 8.768e-05, "INCLINATION": 97.4342, "RA_OF_ASC_NODE": 73.0668, "ARG_OF_PERICENTER": 68.1646, "MEAN_ANOMALY": 291.9682, "EPHEMERIS_TYPE": 0, "CLASSIFICATION_TYPE": "U", "NORAD_CAT_ID": 64902, "ELEMENT_SET_NO": 999, "REV_AT_EPOCH": 2275, "BSTAR": 0.00078373985, "MEAN_MOTION_DOT": 0.00016935, "MEAN_MOTION_DDOT": 0}, "tle": {"line1": "1 64902U 25156D   25356.94684654  .00016935  00000+0  78374-3 0  9992", "line2": "2 64902  97.4342  73.0668 0000876  68.1646 291.9682 15.20197350 22750"}}, "geometry": {"type": "Point", "coordinates": [72.45193313197842, 8.142492561605437]}}, {"type": "Feature", "properties": {"norad_id": 64903, "name": "CO3D 1", "group": "resource", "lat": 7.318673985560528, "lon": 72.56107691147251, "alt_km": 507.05111413309623, "timestamp": "2025-12-23T09:49:06.734458+00:00", "meta": {"OBJECT_NAME": "CO3D 1", "OBJECT_ID": "2025-156E", "EPOCH": "2025-12-22T22:43:40.696320", "MEAN_MOTION": 15.20203625, "ECCENTRICITY": 8.93e-05, "INCLINATION": 97.4339, "RA_OF_ASC_NODE": 73.0665, "ARG_OF_PERICENTER": 76.0215, "MEAN_ANOMALY": 284.112, "EPHEMERIS_TYPE": 0, "CLASSIFICATION_TYPE": "U", "NORAD_CAT_ID": 64903, "ELEMENT_SET_NO": 999, "REV_AT_EPOCH": 2275, "BSTAR": 0.0003017122, "MEAN_MOTION_DOT": 6.47e-05, "MEAN_MOTION_DDOT": 0}, "tle": {"line1": "1 64903U 25156E   25356.94699880  .00006470  00000+0  30171-3 0  9996", "line2": "2 64903  97.4339  73.0665 0000893  76.0215 284.1120 15.20203625 22757"}}, "geometry": {"type": "Point", "coordinates": [72.56107691147251, 7.318673985560528]}}, {"type": "Feature", "properties": {"norad_id": 66514, "name": "SENTINEL-6B", "group": "resource", "lat": -24.644734826200267, "lon": 128.5029982906596, "alt_km": 1339.528189329173, "timestamp": "2025-12-23T09:49:06.734468+00:00", "meta": {"OBJECT_NAME": "SENTINEL-6B", "OBJECT_ID": "2025-264A", "EPOCH": "2025-12-22T18:58:09.372864", "MEAN_MOTION": 12.8092954, "ECCENTRICITY": 0.00078832, "INCLINATION": 66.0396, "RA_OF_ASC_NODE": 141.5585, "ARG_OF_PERICENTER": 269.9604, "MEAN_ANOMALY": 90.0508, "EPHEMERIS_TYPE": 0, "CLASSIFICATION_TYPE": "U", "NORAD_CAT_ID": 66514, "ELEMENT_SET_NO": 999, "REV_AT_EPOCH": 457, "BSTAR": -1.4678269e-05, "MEAN_MOTION_DOT": -6.4e-07, "MEAN_MOTION_DDOT": 0}, "tle": {"line1": "1 66514U 25264A   25356.79038626 -.00000064  00000+0 -14678-4 0  9994", "line2": "2 66514  66.0396 141.5585 0007883 269.9604  90.0508 12.80929540  4573"}}, "geometry": {"type": "Point", "coordinates": [128.5029982906596, -24.644734826200267]}}]}